[{"OBJECT_NAME":"STARLINK-32821","OBJECT_ID":"2025-037B","EPOCH":"2026-03-09T23:33:38.449728","MEAN_MOTION":14.98375397,"ECCENTRICITY":0.00045199,"INCLINATION":70.0079,"RA_OF_ASC_NODE":353.8116,"ARG_OF_PERICENTER":200.8938,"MEAN_ANOMALY":159.2037,"EPHEMERIS_TYPE":0,"CLASSIFICATION_TYPE":"U","NORAD_CAT_ID":63078,"ELEMENT_SET_NO":999,"REV_AT_EPOCH":5863,"BSTAR":0.003431592,"MEAN_MOTION_DOT":0.00041146,"MEAN_MOTION_DDOT":0},{"OBJECT_NAME":"KUIPER-00232","OBJECT_ID":"2025-301R","EPOCH":"2026-03-09T22:00:01.999584","MEAN_MOTION":15.06812029,"ECCENTRICITY":0.0002965,"INCLINATION":51.8873,"RA_OF_ASC_NODE":65.5535,"ARG_OF_PERICENTER":139.5556,"MEAN_ANOMALY":115.4886,"EPHEMERIS_TYPE":0,"CLASSIFICATION_TYPE":"U","NORAD_CAT_ID":67148,"ELEMENT_SET_NO":999,"REV_AT_EPOCH":493,"BSTAR":-0.072865786,"MEAN_MOTION_DOT":-0.01020247,"MEAN_MOTION_DDOT":0}]
